     3.00           N                   E                   RINEX VERSION / TYPE
BRD_USR             ESA                 20190112 131645  UTCPGM / RUN BY / DATE
 GAL   3.6000E+01  1.1719E-01  1.0681E-03  0.0000E+00       IONOSPHERIC CORR
GAUT  2.7939677238E-09-1.776356839E-15 518400 2035 GSTB   0 TIME SYSTEM CORR
GPGA  2.1827872843E-09 1.199040867E-14 518400 2035 GSTB   0 TIME SYSTEM CORR
                                                            END OF HEADER
E33 2019 01 12 10 50 00 8.479093667120E-04 1.421085471520E-13 0.000000000000E+00
     3.300000000000E+01 2.565625000000E+01 2.966194982498E-09 2.702045032118E+00
     1.035630702972E-06 3.684470430017E-04 3.684312105179E-06 5.440595943451E+03
     5.574000000000E+05 2.980232238770E-08-8.691670733259E-01 3.911554813385E-08
     9.851615186745E-01 2.726562500000E+02-1.433693549125E+00-5.715238062606E-09
     2.492960984689E-10 2.580000000000E+02 2.035000000000E+03 0.000000000000E+00
     3.120000000000E+00 5.600000000000E+01-8.149072527885E-09 0.000000000000E+00
     5.584000000000E+05 0.000000000000E+00 0.000000000000E+00 0.000000000000E+00
E33 2019 01 12 10 50 00 8.479085518047E-04 1.421085471520E-13 0.000000000000E+00
     3.300000000000E+01 2.565625000000E+01 2.966194982498E-09 2.702045032118E+00
     1.035630702972E-06 3.684470430017E-04 3.684312105179E-06 5.440595943451E+03
     5.574000000000E+05 2.980232238770E-08-8.691670733259E-01 3.911554813385E-08
     9.851615186745E-01 2.726562500000E+02-1.433693549125E+00-5.715238062606E-09
     2.492960984689E-10 5.210000000000E+02 2.035000000000E+03 0.000000000000E+00
     3.120000000000E+00 4.550000000000E+02-8.149072527885E-09-9.313225746155E-09
     5.584150000000E+05 0.000000000000E+00 0.000000000000E+00 0.000000000000E+00
E02 2019 01 12 10 50 00 4.301144508645E-05 1.563194018672E-12 0.000000000000E+00
     3.300000000000E+01 1.281250000000E+00 2.795473585553E-09 3.840385145056E-01
     7.823109626770E-08 2.633777912706E-04 6.757676601410E-06 5.440612417221E+03
     5.574000000000E+05 4.842877388000E-08-2.949168913386E+00 4.656612873077E-08
     9.901519330824E-01 2.091562500000E+02-1.648752694539E-01-5.485585639518E-09
    -3.221562762449E-10 5.210000000000E+02 2.035000000000E+03 0.000000000000E+00
     3.120000000000E+00 0.000000000000E+00-6.053596735001E-09-7.450580596924E-09
     5.585350000000E+05 0.000000000000E+00 0.000000000000E+00 0.000000000000E+00
E18 2019 01 12 10 50 00 5.612093198579E-03-2.846434199455E-11 0.000000000000E+00
     3.300000000000E+01 9.975000000000E+01 4.369467720155E-09 2.931097618015E+00
     3.799796104431E-06 1.662963593844E-01 6.075948476791E-06 5.289394371033E+03
     5.574000000000E+05 2.546235918999E-06-1.448523173102E+00-1.244246959686E-06
     8.818325513854E-01 1.606250000000E+02 1.441653134251E+00-5.713809431669E-09
     3.928735076157E-12 5.210000000000E+02 2.035000000000E+03 0.000000000000E+00
     3.120000000000E+00 4.550000000000E+02 1.420266926289E-08 1.583248376846E-08
     5.585350000000E+05 0.000000000000E+00 0.000000000000E+00 0.000000000000E+00
E02 2019 01 12 10 50 00 4.301243461668E-05 1.563194018672E-12 0.000000000000E+00
     3.300000000000E+01 1.281250000000E+00 2.795473585553E-09 3.840385145056E-01
     7.823109626770E-08 2.633777912706E-04 6.757676601410E-06 5.440612417221E+03
     5.574000000000E+05 4.842877388000E-08-2.949168913386E+00 4.656612873077E-08
     9.901519330824E-01 2.091562500000E+02-1.648752694539E-01-5.485585639518E-09
    -3.221562762449E-10 2.580000000000E+02 2.035000000000E+03 0.000000000000E+00
     3.120000000000E+00 0.000000000000E+00-6.053596735001E-09 0.000000000000E+00
     5.585500000000E+05 0.000000000000E+00 0.000000000000E+00 0.000000000000E+00
E18 2019 01 12 10 50 00 5.612091394141E-03-2.846434199455E-11 0.000000000000E+00
     3.300000000000E+01 9.975000000000E+01 4.369467720155E-09 2.931097618015E+00
     3.799796104431E-06 1.662963593844E-01 6.075948476791E-06 5.289394371033E+03
     5.574000000000E+05 2.546235918999E-06-1.448523173102E+00-1.244246959686E-06
     8.818325513854E-01 1.606250000000E+02 1.441653134251E+00-5.713809431669E-09
     3.928735076157E-12 2.580000000000E+02 2.035000000000E+03 0.000000000000E+00
     3.120000000000E+00 5.600000000000E+01 1.420266926289E-08 0.000000000000E+00
     5.585500000000E+05 0.000000000000E+00 0.000000000000E+00 0.000000000000E+00
E30 2019 01 12 10 50 00 5.194710625801E-03-3.053912678297E-11 0.000000000000E+00
     3.300000000000E+01 1.593750000000E+00 2.841904090998E-09-1.145026758915E+00
     3.166496753693E-08 3.124877111986E-04 6.442889571190E-06 5.440610616684E+03
     5.574000000000E+05 1.490116119385E-07-2.945730391735E+00-2.980232238770E-08
     9.876957696990E-01 2.142187500000E+02 5.783631426664E-01-5.471656487884E-09
    -3.457286867018E-10 5.210000000000E+02 2.035000000000E+03 0.000000000000E+00
     3.120000000000E+00 0.000000000000E+00-2.793967723846E-09-3.492459654808E-09
     5.586250000000E+05 0.000000000000E+00 0.000000000000E+00 0.000000000000E+00
E01 2019 01 12 11 00 00-5.191299133003E-04-8.057554623520E-12 0.000000000000E+00
     3.400000000000E+01 4.000000000000E+00 2.703326890130E-09-2.201068898257E+00
     2.030283212662E-07 9.733648039401E-05 7.091090083122E-06 5.440618558884E+03
     5.580000000000E+05-9.313225746155E-09-2.949139106430E+00 1.490116119385E-08
     9.901432111648E-01 2.030937500000E+02-6.452596814957E-01-5.468799226010E-09
    -3.285851154604E-10 5.210000000000E+02 2.035000000000E+03 0.000000000000E+00
     3.120000000000E+00 0.000000000000E+00-4.656612873077E-09-5.122274160385E-09
     5.586850000000E+05 0.000000000000E+00 0.000000000000E+00 0.000000000000E+00
E02 2019 01 12 11 00 00 4.301243461668E-05 1.563194018672E-12 0.000000000000E+00
     3.400000000000E+01 1.156250000000E+00 2.791544850477E-09 4.584708954616E-01
     6.705522537231E-08 2.633656840771E-04 6.759539246559E-06 5.440612380981E+03
     5.580000000000E+05 4.470348358154E-08-2.949172190322E+00 5.587935447693E-08
     9.901517765502E-01 2.090937500000E+02-1.649224573395E-01-5.479871115771E-09
    -3.257278535868E-10 5.210000000000E+02 2.035000000000E+03 0.000000000000E+00
     3.120000000000E+00 0.000000000000E+00-6.053596735001E-09-7.450580596924E-09
     5.586850000000E+05 0.000000000000E+00 0.000000000000E+00 0.000000000000E+00
E04 2019 01 12 11 00 00-1.984509290196E-04-7.844391802792E-12 0.000000000000E+00
     3.400000000000E+01-5.500000000000E+00 3.298708833035E-09 2.625662944167E+00
    -2.402812242508E-07 7.482338696718E-05 1.092813909054E-05 5.440620565414E+03
     5.580000000000E+05 2.048909664154E-08 1.241524998888E+00 3.911554813385E-08
     9.524898195728E-01 1.031250000000E+02 2.119510224943E+00-5.576660861738E-09
     1.046472161195E-10 5.210000000000E+02 2.035000000000E+03 0.000000000000E+00
     3.120000000000E+00 0.000000000000E+00-7.916241884232E-09-8.847564458847E-09
     5.586850000000E+05 0.000000000000E+00 0.000000000000E+00 0.000000000000E+00
E05 2019 01 12 11 00 00 1.263885642402E-04-6.536993168993E-12 0.000000000000E+00
     3.400000000000E+01-2.815625000000E+01 3.211205188157E-09 1.554565487698E+00
    -1.411885023117E-06 1.330294180661E-04 1.216121017933E-05 5.440620981216E+03
     5.580000000000E+05-2.793967723846E-08 1.241459025672E+00-9.313225746155E-09
     9.524604573440E-01 7.071875000000E+01 1.617382581448E+00-5.538444984179E-09
     3.643008888800E-11 5.210000000000E+02 2.035000000000E+03 0.000000000000E+00
     3.120000000000E+00 0.000000000000E+00-1.396983861923E-09-1.629814505577E-09
     5.586850000000E+05 0.000000000000E+00 0.000000000000E+00 0.000000000000E+00
E07 2019 01 12 11 00 00-1.111424062401E-04-7.119638212316E-12 0.000000000000E+00
     3.400000000000E+01-3.859375000000E+01 3.294422940225E-09 8.421604528032E-01
    -1.640990376472E-06 1.358462031931E-04 1.042895019054E-05 5.440619211197E+03
     5.580000000000E+05 1.117587089539E-08 1.241475950171E+00-1.303851604462E-08
     9.524909738151E-01 1.103437500000E+02-2.811881276999E-02-5.548802558470E-09
     7.536028191537E-11 5.210000000000E+02 2.035000000000E+03 0.000000000000E+00
     3.120000000000E+00 0.000000000000E+00 0.000000000000E+00 0.000000000000E+00
     5.586850000000E+05 0.000000000000E+00 0.000000000000E+00 0.000000000000E+00
E11 2019 01 12 11 00 00 5.719632434193E-03 8.810729923425E-13 0.000000000000E+00
     3.400000000000E+01 2.703125000000E+01 3.054770100579E-09 1.199931827006E-01
     1.301988959312E-06 2.747916150838E-04 3.723427653313E-06 5.440602716446E+03
     5.580000000000E+05 5.215406417847E-08-8.638466333768E-01-1.303851604462E-08
     9.819238088623E-01 2.730312500000E+02-3.518218707017E-01-5.779883612495E-09
     2.960837616486E-10 5.210000000000E+02 2.035000000000E+03 0.000000000000E+00
     3.120000000000E+00 0.000000000000E+00-1.839362084866E-08-2.002343535423E-08
     5.586850000000E+05 0.000000000000E+00 0.000000000000E+00 0.000000000000E+00
E12 2019 01 12 11 00 00 5.925485573243E-03 8.439826615358E-11 0.000000000000E+00
     3.400000000000E+01 2.468750000000E+01 3.072985145023E-09 1.428873304274E+00
     1.102685928345E-06 3.981142072007E-04 3.671273589134E-06 5.440602445602E+03
     5.580000000000E+05 5.029141902924E-08-8.638624445954E-01 2.607703208923E-08
     9.819381235157E-01 2.760000000000E+02-8.570744637459E-01-5.750596678291E-09
     2.703684047864E-10 5.210000000000E+02 2.035000000000E+03 0.000000000000E+00
     3.120000000000E+00 0.000000000000E+00-1.559965312481E-08-1.583248376846E-08
     5.586850000000E+05 0.000000000000E+00 0.000000000000E+00 0.000000000000E+00
